OBJECT_NAME,OBJECT_ID,EPOCH,MEAN_MOTION,ECCENTRICITY,INCLINATION,RA_OF_ASC_NODE,ARG_OF_PERICENTER,MEAN_ANOMALY,EPHEMERIS_TYPE,CLASSIFICATION_TYPE,NORAD_CAT_ID,ELEMENT_SET_NO,REV_AT_EPOCH,BSTAR,MEAN_MOTION_DOT,MEAN_MOTION_DDOT
NETSAT-4,2020-068U,2026-06-09T11:25:35.332896,15.43608355,.0004854,97.8610,168.0984,10.1265,350.0078,0,U,46504,999,31458,.36594E-3,.16384E-3,0
NETSAT-3,2020-068V,2026-06-09T11:26:03.296256,15.42410894,.0005296,97.8659,166.3250,28.5044,331.6490,0,U,46505,999,31449,.38131E-3,.16404E-3,0
NETSAT-1,2020-068W,2026-06-09T10:35:00.826656,15.34458982,.0005936,97.8747,160.7089,54.3236,305.8557,0,U,46506,999,31411,.34762E-3,.11525E-3,0
NETSAT-2,2020-068X,2026-06-09T00:12:32.404896,15.45645345,.00045667,97.8623,167.4592,48.2139,311.9499,0,U,46507,999,31447,.40370978E-3,.19387E-3,0
TIANQI-6,2020-076D,2026-06-09T06:07:34.622112,15.07129259,.0009192,34.9985,97.1422,100.6779,259.4966,0,U,46810,999,30738,.21485E-3,.327E-4,0
KSM1-C,2020-081B,2026-06-09T07:28:52.441248,15.26606224,.0001881,36.8943,107.5577,203.3140,156.7524,0,U,46906,999,30796,.31623E-3,.8388E-4,0
KSM1-D,2020-081C,2026-06-09T07:16:19.968960,15.24606145,.0004443,36.8950,116.4687,211.9241,148.1239,0,U,46907,999,30789,.27643E-3,.6887E-4,0
KSM1-A,2020-081H,2026-06-09T07:27:42.573888,15.25831770,.0004625,36.8953,109.8983,257.5879,102.4353,0,U,46912,999,30797,.29376E-3,.7604E-4,0
R2,2020-081J,2026-06-09T03:11:45.827520,15.25316026,.00084913,36.8973,110.9294,224.5897,135.4169,0,U,46913,999,31075,.25956339E-3,.6606E-4,0
KSM1-B,2020-081K,2026-06-09T07:19:44.242752,15.24399044,.0006506,36.9008,117.0402,226.3558,133.6651,0,U,46914,999,31098,.26918E-3,.6663E-4,0
GONETS-M 20,2020-091A,2026-06-09T12:28:33.957408,12.42893372,.0020841,82.5044,307.2032,194.6140,165.4340,0,U,47227,999,25012,.51913E-4,.17E-6,0
GONETS-M 21,2020-091B,2026-06-09T11:50:52.473696,12.42886341,.0014401,82.4968,305.9312,207.9533,152.0774,0,U,47228,999,25011,-.19219E-4,.7E-7,0
GONETS-M 22,2020-091C,2026-06-09T11:12:10.920384,12.42892638,.0021763,82.5025,306.8430,190.1025,169.9620,0,U,47229,999,25006,.34418E-3,.58E-6,0
CUBEL,2021-006AM,2026-06-08T15:44:19.785984,15.40916074,.00063181,97.2333,210.3218,187.3006,172.8150,0,U,47448,999,29844,.23397477E-3,.9545E-4,0
ARKTIKA-M 1,2021-016A,2026-06-02T00:56:25.095840,2.00628509,.72832396,63.2379,59.8266,269.8643,14.6915,0,U,47719,999,3848,0,-.2E-5,0
STARLINK-2342,2021-021Z,2026-06-09T12:00:02.998944,15.78181572,.0001585,53.1552,186.5545,97.6917,138.2262,0,U,47883,999,597,.48294E-2,.94231E-2,0
GRUS-1B,2021-022C,2026-06-09T12:00:06.676992,14.98980092,.0016331,97.5409,43.9501,356.0901,4.0192,0,U,47934,999,28474,.14505E-3,.1703E-4,0
UNISAT-7,2021-022P,2026-06-09T11:51:17.407008,15.40259098,.0011227,97.3897,65.3387,100.7177,259.5334,0,U,47945,999,28867,.33067E-3,.13256E-3,0
GLOBAL-9,2021-023G,2026-06-09T12:02:59.470080,15.46307783,.0005171,44.9816,293.7144,278.6390,81.3914,0,U,47971,999,29375,.40576E-3,.20154E-3,0
AII-BRAVO,2021-034C,2026-06-09T02:25:45.873696,15.03414511,.00047943,97.5620,215.1949,295.6505,64.4225,0,U,48270,999,27840,.30655844E-3,.4112E-4,0
TYVAK-182A,2021-034D,2026-06-09T10:10:56.729280,15.06100254,.0005838,97.5732,219.4768,15.5984,344.5421,0,U,48271,999,27866,.30025E-3,.4328E-4,0
CSS (TIANHE),2021-035A,2026-06-09T11:45:26.750880,15.60486295,.0008444,41.4694,8.8345,15.7709,344.3391,0,U,48274,999,29196,.2642E-3,.22144E-3,0
TYVAK-0130,2021-041BF,2026-06-09T10:56:02.112000,15.27465011,.0010893,52.9975,61.9886,139.5349,220.6461,0,U,48606,999,27920,.2715E-3,.7059E-4,0
HAIYANG-2D,2021-043A,2026-06-09T13:21:59.827680,13.83375272,.0011378,66.0000,323.6971,270.0098,89.9666,0,U,48621,999,25549,-.28819E-4,-.113E-5,0
2021-050D,2021-050D,2026-06-09T12:26:47.123808,15.23254272,.0004009,97.3336,236.7291,300.9673,59.1170,0,U,48843,999,27779,.18308E-3,.4268E-4,0
TYVAK-0173,2021-059P,2026-06-09T11:59:51.487008,14.81865733,.0010724,96.0086,238.7673,62.3709,297.8596,0,U,48892,999,26710,.21336E-3,.1657E-4,0
MANDRAKE 2 ABLE,2021-059AE,2026-06-09T12:22:14.327040,15.54680272,.0005104,97.7042,349.7167,34.2094,325.9487,0,U,48907,999,27593,.3058E-3,.20188E-3,0
MANDRAKE 2 BAKER,2021-059AF,2026-06-09T11:15:53.014176,15.59168834,.0003602,97.7012,352.4860,35.6205,324.5290,0,U,48908,999,27609,.31563E-3,.24632E-3,0
PACE-1,2021-059AG,2026-06-09T11:41:19.481856,15.78545826,.0000767,97.6781,357.7671,320.2047,39.9162,0,U,48909,999,27658,.43411E-3,.75567E-3,0
