NETSAT-4                
1 46504U 20068U   26160.47610339  .00016384  00000+0  36594-3 0  9994
2 46504  97.8610 168.0984 0004854  10.1265 350.0078 15.43608355314588
NETSAT-3                
1 46505U 20068V   26160.47642704  .00016404  00000+0  38131-3 0  9998
2 46505  97.8659 166.3250 0005296  28.5044 331.6490 15.42410894314499
NETSAT-1                
1 46506U 20068W   26160.44098179  .00011525  00000+0  34762-3 0  9992
2 46506  97.8747 160.7089 0005936  54.3236 305.8557 15.34458982314114
NETSAT-2                
1 46507U 20068X   26160.00870839  .00019387  00000+0  40371-3 0  9993
2 46507  97.8623 167.4592 0004566  48.2139 311.9499 15.45645345314478
TIANQI-6                
1 46810U 20076D   26160.25526183  .00003270  00000+0  21485-3 0  9995
2 46810  34.9985  97.1422 0009192 100.6779 259.4966 15.07129259307388
KSM1-C                  
1 46906U 20081B   26160.31171807  .00008388  00000+0  31623-3 0  9993
2 46906  36.8943 107.5577 0001881 203.3140 156.7524 15.26606224307962
KSM1-D                  
1 46907U 20081C   26160.30300890  .00006887  00000+0  27643-3 0  9998
2 46907  36.8950 116.4687 0004443 211.9241 148.1239 15.24606145307896
KSM1-A                  
1 46912U 20081H   26160.31090942  .00007604  00000+0  29376-3 0  9992
2 46912  36.8953 109.8983 0004625 257.5879 102.4353 15.25831770307979
R2                      
1 46913U 20081J   26160.13316930  .00006606  00000+0  25956-3 0  9992
2 46913  36.8973 110.9294 0008491 224.5897 135.4169 15.25316026310752
KSM1-B                  
1 46914U 20081K   26160.30537318  .00006663  00000+0  26918-3 0  9999
2 46914  36.9008 117.0402 0006506 226.3558 133.6651 15.24399044310982
GONETS-M 20             
1 47227U 20091A   26160.51983747  .00000017  00000+0  51913-4 0  9993
2 47227  82.5044 307.2032 0020841 194.6140 165.4340 12.42893372250128
GONETS-M 21             
1 47228U 20091B   26160.49366289  .00000007  00000+0 -19219-4 0  9990
2 47228  82.4968 305.9312 0014401 207.9533 152.0774 12.42886341250118
GONETS-M 22             
1 47229U 20091C   26160.46679306  .00000058  00000+0  34418-3 0  9997
2 47229  82.5025 306.8430 0021763 190.1025 169.9620 12.42892638250060
CUBEL                   
1 47448U 21006AM  26159.65578456  .00009545  00000+0  23397-3 0  9994
2 47448  97.2333 210.3218 0006318 187.3006 172.8150 15.40916074298444
ARKTIKA-M 1             
1 47719U 21016A   26153.03917935 -.00000200  00000+0  00000+0 0  9993
2 47719  63.2379  59.8266 7283239 269.8643  14.6915  2.00628509 38489
STARLINK-2342           
1 47883U 21021Z   26160.50003471  .00942310  00000+0  48294-2 0  9998
2 47883  53.1552 186.5545 0001585  97.6917 138.2262 15.78181572  5975
GRUS-1B                 
1 47934U 21022C   26160.50007728  .00001703  00000+0  14505-3 0  9996
2 47934  97.5409  43.9501 0016331 356.0901   4.0192 14.98980092284744
UNISAT-7                
1 47945U 21022P   26160.49395147  .00013256  00000+0  33067-3 0  9991
2 47945  97.3897  65.3387 0011227 100.7177 259.5334 15.40259098288677
GLOBAL-9                
1 47971U 21023G   26160.50207720  .00020154  00000+0  40576-3 0  9990
2 47971  44.9816 293.7144 0005171 278.6390  81.3914 15.46307783293757
AII-BRAVO               
1 48270U 21034C   26160.10122539  .00004112  00000+0  30656-3 0  9999
2 48270  97.5620 215.1949 0004794 295.6505  64.4225 15.03414511278408
TYVAK-182A              
1 48271U 21034D   26160.42426770  .00004328  00000+0  30025-3 0  9998
2 48271  97.5732 219.4768 0005838  15.5984 344.5421 15.06100254278666
CSS (TIANHE)            
1 48274U 21035A   26160.48989295  .00022144  00000+0  26420-3 0  9994
2 48274  41.4694   8.8345 0008444  15.7709 344.3391 15.60486295291962
TYVAK-0130              
1 48606U 21041BF  26160.45558000  .00007059  00000+0  27150-3 0  9992
2 48606  52.9975  61.9886 0010893 139.5349 220.6461 15.27465011279209
HAIYANG-2D              
1 48621U 21043A   26160.55694245 -.00000113  00000+0 -28819-4 0  9994
2 48621  66.0000 323.6971 0011378 270.0098  89.9666 13.83375272255492
2021-050D               
1 48843U 21050D   26160.51860097  .00004268  00000+0  18308-3 0  9998
2 48843  97.3336 236.7291 0004009 300.9673  59.1170 15.23254272277799
TYVAK-0173              
1 48892U 21059P   26160.49990147  .00001657  00000+0  21336-3 0  9992
2 48892  96.0086 238.7673 0010724  62.3709 297.8596 14.81865733267107
MANDRAKE 2 ABLE         
1 48907U 21059AE  26160.51544360  .00020188  00000+0  30580-3 0  9995
2 48907  97.7042 349.7167 0005104  34.2094 325.9487 15.54680272275932
MANDRAKE 2 BAKER        
1 48908U 21059AF  26160.46936359  .00024632  00000+0  31563-3 0  9993
2 48908  97.7012 352.4860 0003602  35.6205 324.5290 15.59168834276096
PACE-1                  
1 48909U 21059AG  26160.48703104  .00075567  00000+0  43411-3 0  9994
2 48909  97.6781 357.7671 0000767 320.2047  39.9162 15.78545826276583
